     2.11           N: GPS NAV DATA                         RINEX VERSION / TYPE
teqc  2019Feb25                         20221121 12:26:05UTCPGM / RUN BY / DATE
OSX ker:10.11.6|Core i5|gcc 4.3 -m64|OSX ker:10.10+|=+      COMMENT
    4.6566D-09  1.4901D-08 -5.9605D-08 -5.9605D-08          ION ALPHA
    7.7824D+04  4.9152D+04 -6.5536D+04 -3.2768D+05          ION BETA
    9.313225746155D-10-4.440892098501D-15   221184     1544 DELTA-UTC: A0,A1,T,W
                                                            END OF HEADER
16 09  8 10  5 59 44.0 2.443976700306D-05-3.751665644813D-12 0.000000000000D+00
    4.000000000000D+00-4.478125000000D+01 4.465900308388D-09 1.912776964713D+00
   -2.233311533928D-06 5.316013353877D-03 4.531815648079D-06 5.153595752716D+03
    1.079840000000D+05 1.303851604462D-08 2.438468037444D+00 4.656612873077D-08
    9.691971544946D-01 2.965000000000D+02-2.959630751129D-01-8.163554330520D-09
   -1.760787629587D-10 1.000000000000D+00 1.544000000000D+03 0.000000000000D+00
    2.000000000000D+00 0.000000000000D+00-9.778887033463D-09 4.000000000000D+00
    1.041480000000D+05 4.000000000000D+00
 7 09  8 10  6  0  0.0 1.366389915347D-05-6.821210263297D-13 0.000000000000D+00
    8.800000000000D+01 6.028125000000D+01 4.274820920593D-09-1.936022365800D+00
    3.086403012276D-06 2.971367910504D-03 7.588416337967D-06 5.153655912399D+03
    1.080000000000D+05-2.980232238770D-08 1.368473859663D+00 8.940696716309D-08
    9.680789013777D-01 2.380937500000D+02 2.897545590404D+00-7.999261772790D-09
    4.175173912752D-10 1.000000000000D+00 1.544000000000D+03 0.000000000000D+00
    2.000000000000D+00 0.000000000000D+00-1.071020960808D-08 8.800000000000D+01
    1.043580000000D+05 4.000000000000D+00
 8 09  8 10  6  0  0.0-2.159620635211D-04-1.705302565824D-12 0.000000000000D+00
    5.600000000000D+01 6.037500000000D+01 3.842302904481D-09-2.645690422871D+00
    3.062188625336D-06 1.082320103887D-02 7.411465048790D-06 5.153630222321D+03
    1.080000000000D+05-1.359730958939D-07 1.430394269480D+00 3.352761268616D-08
    9.892773289716D-01 2.525312500000D+02 3.004292895464D+00-7.739965257763D-09
    4.053740283126D-10 1.000000000000D+00 1.544000000000D+03 0.000000000000D+00
    2.000000000000D+00 0.000000000000D+00-3.725290298462D-09 5.600000000000D+01
    1.077180000000D+05 4.000000000000D+00
10 09  8 10  8  0  0.0-2.093194052577D-05-7.958078640513D-13 0.000000000000D+00
    1.060000000000D+02-2.325000000000D+01 5.173072622096D-09 1.787466289843D+00
   -1.125037670136D-06 8.565548690967D-03 4.367902874947D-06 5.153644371033D+03
    1.152000000000D+05-2.626329660416D-07-7.024049292075D-01 9.872019290924D-08
    9.571756398074D-01 2.962812500000D+02 6.261949023655D-01-8.528569534868D-09
   -2.132231673151D-10 1.000000000000D+00 1.544000000000D+03 0.000000000000D+00
    2.800000000000D+00 0.000000000000D+00-2.793967723846D-09 1.060000000000D+02
    1.080180000000D+05 4.000000000000D+00
24 09  8 10  8  0  0.0 2.111964859068D-04 2.955857780762D-12 0.000000000000D+00
    3.100000000000D+01 8.587500000000D+01 4.899489797702D-09 3.078454373250D+00
    4.472211003304D-06 6.570891942829D-03 7.718801498413D-06 5.153672538757D+03
    1.152000000000D+05-2.607703208923D-08-1.723216915907D+00 1.266598701477D-07
    9.499835453935D-01 2.213437500000D+02-6.445986941458D-01-8.200698734876D-09
    4.975207237351D-10 1.000000000000D+00 1.544000000000D+03 0.000000000000D+00
    2.000000000000D+00 0.000000000000D+00-1.396983861923D-09 3.100000000000D+01
    1.080180000000D+05 4.000000000000D+00
29 09  8 10  8  0  0.0 4.734890535474D-05 3.296918293927D-12 0.000000000000D+00
    1.500000000000D+01-3.318750000000D+01 4.241605251313D-09-1.854772750021D+00
   -1.568347215652D-06 3.245420986786D-03 1.174956560135D-05 5.153638206482D+03
    1.152000000000D+05 2.421438694000D-08-2.794405904234D+00 4.842877388000D-08
    9.604354265163D-01 1.506250000000D+02-1.289090321706D+00-7.876399512226D-09
   -7.607459738377D-11 1.000000000000D+00 1.544000000000D+03 0.000000000000D+00
    2.000000000000D+00 0.000000000000D+00-8.847564458847D-09 1.500000000000D+01
    1.080180000000D+05 4.000000000000D+00
 2 09  8 10  7 59 44.0 1.644915901124D-04 2.273736754432D-12 0.000000000000D+00
    1.700000000000D+01 7.978125000000D+01 5.167358098349D-09 7.802985436178D-01
    4.172325134277D-06 9.075059671886D-03 7.662922143936D-06 5.153693792343D+03
    1.151840000000D+05 2.346932888031D-07-1.787584792059D+00 5.587935447693D-08
    9.406563395980D-01 2.223125000000D+02 2.877932793384D+00-8.406778747507D-09
    4.560904265684D-10 1.000000000000D+00 1.544000000000D+03 0.000000000000D+00
    2.000000000000D+00 0.000000000000D+00-1.722946763039D-08 1.700000000000D+01
    1.080180000000D+05 4.000000000000D+00
25 09  8 10  8  0  0.0 5.466616712511D-04 1.614353095647D-11 0.000000000000D+00
    7.000000000000D+00 5.406250000000D+01 4.149101398156D-09-2.693365935605D+00
    2.747401595116D-06 1.124397234526D-02 8.223578333855D-06 5.153645986557D+03
    1.152000000000D+05 8.754432201386D-08 1.274030860133D+00 6.705522537231D-08
    9.703036296580D-01 2.280937500000D+02-1.209955354011D+00-7.728893368003D-09
    2.010798043524D-10 1.000000000000D+00 1.544000000000D+03 0.000000000000D+00
    2.000000000000D+00 0.000000000000D+00-7.450580596924D-09 7.000000000000D+00
    1.080180000000D+05 4.000000000000D+00
13 09  8 10  8  0  0.0 3.029215149581D-04 5.684341886081D-13 0.000000000000D+00
    9.900000000000D+01-2.059375000000D+01 3.569791553290D-09 1.378940561609D+00
   -1.354143023491D-06 4.083353094757D-03 1.057051122189D-05 5.153672878265D+03
    1.152000000000D+05-4.284083843231D-08 3.804673017960D-01-7.450580596924D-08
    9.948916413674D-01 1.931875000000D+02 1.643879748064D+00-7.529242194588D-09
   -2.742971398626D-10 1.000000000000D+00 1.544000000000D+03 0.000000000000D+00
    2.000000000000D+00 0.000000000000D+00-1.117587089539D-08 9.900000000000D+01
    1.080180000000D+05 4.000000000000D+00
 7 09  8 10  8  0  0.0 1.365877687931D-05-6.821210263297D-13 0.000000000000D+00
    8.900000000000D+01 5.418750000000D+01 4.323037214709D-09-8.860924576504D-01
    2.777203917503D-06 2.971601672471D-03 7.506459951401D-06 5.153654541016D+03
    1.152000000000D+05-6.146728992462D-08 1.368417272529D+00-1.285225152969D-07
    9.680813356734D-01 2.423437500000D+02 2.897806182928D+00-7.988189883030D-09
    2.364384200378D-10 1.000000000000D+00 1.544000000000D+03 0.000000000000D+00
    2.000000000000D+00 0.000000000000D+00-1.071020960808D-08 8.900000000000D+01
    1.080180000000D+05 4.000000000000D+00
 8 09  8 10  8  0  0.0-2.159746363759D-04-1.705302565824D-12 0.000000000000D+00
    5.700000000000D+01 5.021875000000D+01 3.908734243042D-09-1.595616780095D+00
    2.503395080566D-06 1.082380372100D-02 7.171183824539D-06 5.153627395630D+03
    1.152000000000D+05-1.173466444016D-07 1.430338020280D+00-6.705522537231D-08
    9.892802182348D-01 2.578125000000D+02 3.004422812830D+00-7.795681864298D-09
    4.328751738457D-10 1.000000000000D+00 1.544000000000D+03 0.000000000000D+00
    2.000000000000D+00 0.000000000000D+00-3.725290298462D-09 5.700000000000D+01
    1.080180000000D+05 4.000000000000D+00
16 09  8 10  8  0  0.0 2.441275864840D-05-3.751665644813D-12 0.000000000000D+00
    5.000000000000D+00-4.100000000000D+01 4.503401870478D-09 2.965398121329D+00
   -2.123415470123D-06 5.316451890394D-03 4.552304744720D-06 5.153594745636D+03
    1.152000000000D+05-5.587935447693D-09 2.438409095012D+00 4.656612873077D-08
    9.691959505130D-01 2.974687500000D+02-2.960217703121D-01-8.155696860368D-09
   -1.646497154644D-10 1.000000000000D+00 1.544000000000D+03 0.000000000000D+00
    2.000000000000D+00 0.000000000000D+00-9.778887033463D-09 5.000000000000D+00
    1.080180000000D+05 4.000000000000D+00
21 09  8 10  8  0  0.0-2.286396920681D-06-2.160049916711D-12 0.000000000000D+00
    6.300000000000D+01 7.653125000000D+01 5.217003023402D-09-1.851664928317D+00
    3.594905138016D-06 1.550383295398D-02 7.532536983490D-06 5.153767038345D+03
    1.152000000000D+05 1.769512891769D-07-1.756642973105D+00-1.490116119385D-07
    9.333730220014D-01 2.155312500000D+02-2.568110863326D+00-8.325703941845D-09
    6.668134897441D-10 1.000000000000D+00 1.544000000000D+03 0.000000000000D+00
    2.000000000000D+00 0.000000000000D+00-1.210719347000D-08 6.300000000000D+01
    1.080480000000D+05 4.000000000000D+00
15 09  8 10  7 59 44.0-3.134789876640D-04-1.932676241267D-12 0.000000000000D+00
    1.900000000000D+01-3.575000000000D+01 4.568761735836D-09 1.530367238327D+00
   -1.732259988785D-06 1.549236243591D-03 1.045502722263D-05 5.153650651932D+03
    1.151840000000D+05 6.146728992462D-08 3.057188924990D-01-6.332993507385D-08
    9.562847943801D-01 1.700312500000D+02-5.015121353420D-01-8.087122575402D-09
   -3.928735076157D-10 1.000000000000D+00 1.544000000000D+03 0.000000000000D+00
    2.000000000000D+00 0.000000000000D+00-9.778887033463D-09 1.900000000000D+01
    1.093380000000D+05 4.000000000000D+00
 6 09  8 10  8  0  0.0 2.152249217033D-04 8.981260180008D-12 0.000000000000D+00
    7.100000000000D+01-4.490625000000D+01 4.841987402496D-09 2.868897110589D+00
   -2.419576048851D-06 5.913821165450D-03 1.043453812599D-05 5.153704626083D+03
    1.152000000000D+05 3.166496753693D-08-2.867917268540D+00-3.725290298462D-09
    9.343209768247D-01 1.622812500000D+02-1.289250179153D+00-8.067836057755D-09
   -1.407201472733D-10 1.000000000000D+00 1.544000000000D+03 0.000000000000D+00
    2.000000000000D+00 0.000000000000D+00-4.656612873077D-09 7.100000000000D+01
    1.121280000000D+05 4.000000000000D+00
